[
  {
    "lat": 47.6954929,
    "long": -122.2956852,
    "zip": "98115",
    "resolvedAddress": "9122 30th Ave NE, Seattle, WA 98115, USA",
    "nhood": "Wedgwood"
  },
  {
    "lat": 47.6034936,
    "long": -122.3320537,
    "zip": "98104",
    "resolvedAddress": "Cherry St & 3rd Ave, Seattle, WA 98104, USA",
    "nhood": "Downtown"
  },
  {
    "lat": 47.6883622,
    "long": -122.3157336,
    "zip": "98115",
    "resolvedAddress": "1109 NE 82nd St, Seattle, WA 98115, USA",
    "nhood": "Roosevelt"
  },
  {
    "lat": 47.5337541,
    "long": -122.3766226,
    "zip": "98126",
    "resolvedAddress": "SW Holden St & 35th Ave SW, Seattle, WA 98126, USA",
    "nhood": "Delridge"
  },
  {
    "lat": 47.5209149,
    "long": -122.3670298,
    "zip": "98126",
    "resolvedAddress": "2615 SW Barton St, Seattle, WA 98126, USA",
    "nhood": "Delridge"
  },
  {
    "lat": 47.585364,
    "long": -122.3760512,
    "zip": "98126",
    "resolvedAddress": "2134 Harbor Ave SW, Seattle, WA 98126, USA",
    "nhood": "West Seattle"
  },
  {
    "lat": 47.6680025,
    "long": -122.4002192,
    "zip": "98107",
    "resolvedAddress": "3244 NW 54th St, Seattle, WA 98107, USA",
    "nhood": "Ballard"
  },
  {
    "lat": 47.60308630000001,
    "long": -122.3377627,
    "zip": "98104",
    "resolvedAddress": "Alaskan Way & Marion St, Seattle, WA 98104, USA",
    "nhood": "Downtown"
  },
  {
    "lat": 47.52808479999999,
    "long": -122.3762875,
    "zip": "98126",
    "resolvedAddress": "8400 35th Ave SW, Seattle, WA 98126, USA",
    "nhood": "Delridge"
  },
  {
    "lat": 47.6747732,
    "long": -122.2649202,
    "zip": "98115",
    "resolvedAddress": "6353 Sand Point Way NE, Seattle, WA 98115, USA",
    "nhood": "Windermere"
  },
  {
    "lat": 47.6824202,
    "long": -122.3722504,
    "zip": "98117",
    "resolvedAddress": "7330 13th Ave NW, Seattle, WA 98117, USA",
    "nhood": "Ballard"
  },
  {
    "lat": 47.5797213,
    "long": -122.315143,
    "zip": "98144",
    "resolvedAddress": "2543 14th Ave S, Seattle, WA 98144, USA",
    "nhood": "Beacon Hill"
  },
  {
    "lat": 47.661979,
    "long": -122.4357206,
    "zip": "98199",
    "resolvedAddress": "West Point Lighthouse, 3801 Discovery Park Blvd, Seattle, WA 98199, USA",
    "nhood": "Magnolia"
  },
  {
    "lat": 47.6123907,
    "long": -122.340892,
    "zip": "98101",
    "resolvedAddress": "Virginia St & 3rd Ave, Seattle, WA 98101, USA",
    "nhood": "Downtown"
  },
  {
    "lat": 47.61114329999999,
    "long": -122.3208208,
    "zip": "98122",
    "resolvedAddress": "Madison St & Broadway, Seattle, WA 98122, USA",
    "nhood": "Downtown"
  },
  {
    "lat": 47.6342737,
    "long": -122.2764123,
    "zip": "98112",
    "resolvedAddress": "1630 43rd Ave E, Seattle, WA 98112, USA",
    "nhood": "Capitol Hill"
  },
  {
    "lat": 47.6994808,
    "long": -122.2821897,
    "zip": "98115",
    "resolvedAddress": "9626 42nd Ave NE, Seattle, WA 98115, USA",
    "nhood": "Lake City"
  },
  {
    "lat": 47.520597,
    "long": -122.3892226,
    "zip": "98136",
    "resolvedAddress": "SW Brace Point Dr & SW Wildwood Pl, Seattle, WA 98136, USA",
    "nhood": "West Seattle"
  },
  {
    "lat": 47.604745,
    "long": -122.3253512,
    "zip": "98104",
    "resolvedAddress": "800 Jefferson St, Seattle, WA 98104, USA",
    "nhood": "Downtown"
  },
  {
    "lat": 47.72217699999999,
    "long": -122.2957163,
    "zip": "98125",
    "resolvedAddress": "12740 30th Ave NE, Seattle, WA 98125, USA",
    "nhood": "Lake City"
  },
  {
    "lat": 47.6686785,
    "long": -122.3821425,
    "zip": "98107",
    "resolvedAddress": "20th Ave NW & NW Market St, Seattle, WA 98107, USA",
    "nhood": "Ballard"
  },
  {
    "lat": 47.6066328,
    "long": -122.3264376,
    "zip": "98104",
    "resolvedAddress": "725 9th Ave, Seattle, WA 98104, USA",
    "nhood": "Downtown"
  },
  {
    "lat": 47.5587218,
    "long": -122.2914725,
    "zip": "98118",
    "resolvedAddress": "32nd Ave S & S Edmunds St, Seattle, WA 98118, USA",
    "nhood": "Rainier Valley"
  },
  {
    "lat": 47.6381775,
    "long": -122.3868935,
    "zip": "98199",
    "resolvedAddress": "2315 W Boston St, Seattle, WA 98199, USA",
    "nhood": "Interbay"
  },
  {
    "lat": 47.6170402,
    "long": -122.3259922,
    "zip": "98122",
    "resolvedAddress": "1723 Summit Ave, Seattle, WA 98122, USA",
    "nhood": "Capitol Hill"
  },
  {
    "lat": 47.5862018,
    "long": -122.3290539,
    "zip": "98134",
    "resolvedAddress": "S Holgate St & 4th Ave S, Seattle, WA 98134, USA",
    "nhood": "Industrial District"
  },
  {
    "lat": 47.6498285,
    "long": -122.3037819,
    "zip": "98105",
    "resolvedAddress": "3720 Montlake Blvd NE, Seattle, WA 98105, USA",
    "nhood": "University District"
  },
  {
    "lat": 47.5269297,
    "long": -122.3917077,
    "zip": "98136",
    "resolvedAddress": "4602 SW Cloverdale St, Seattle, WA 98136, USA",
    "nhood": "West Seattle"
  },
  {
    "lat": 47.5786154,
    "long": -122.3115947,
    "zip": "98144",
    "resolvedAddress": "S McClellan St & Beacon Ave S, Seattle, WA 98144, USA",
    "nhood": "Beacon Hill"
  },
  {
    "lat": 47.6166862,
    "long": -122.3252827,
    "zip": "98122",
    "resolvedAddress": "1712 Summit Ave, Seattle, WA 98122, USA",
    "nhood": "Capitol Hill"
  },
  {
    "lat": 47.5526231,
    "long": -122.3042785,
    "zip": "98108",
    "resolvedAddress": "5521 23rd Ave S, Seattle, WA 98108, USA",
    "nhood": "Beacon Hill"
  },
  {
    "lat": 47.639102,
    "long": -122.2770788,
    "zip": "98112",
    "resolvedAddress": "43rd Ave E & E Lynn St, Seattle, WA 98112, USA",
    "nhood": "Capitol Hill"
  },
  {
    "lat": 47.67511440000001,
    "long": -122.3537238,
    "zip": "98103",
    "resolvedAddress": "411 N 64th St, Seattle, WA 98103, USA",
    "nhood": "Phinney Ridge"
  },
  {
    "lat": 47.6735164,
    "long": -122.3738625,
    "zip": "98107",
    "resolvedAddress": "6111 14th Ave NW, Seattle, WA 98107, USA",
    "nhood": "Ballard"
  },
  {
    "lat": 47.5844094,
    "long": -122.3887396,
    "zip": "98116",
    "resolvedAddress": "2139 Ferry Ave SW, Seattle, WA 98116, USA",
    "nhood": "West Seattle"
  },
  {
    "lat": 47.6549155,
    "long": -122.3529623,
    "zip": "98103",
    "resolvedAddress": "3959 Dayton Ave N, Seattle, WA 98103, USA",
    "nhood": "Fremont"
  },
  {
    "lat": 47.60786909999999,
    "long": -122.3196562,
    "zip": "98122",
    "resolvedAddress": "1021e Cherry St, Seattle, WA 98122, USA",
    "nhood": "Downtown"
  },
  {
    "lat": 47.6220147,
    "long": -122.319927,
    "zip": "98102",
    "resolvedAddress": "E Harrison St & 10th Ave E, Seattle, WA 98102, USA",
    "nhood": "Capitol Hill"
  },
  {
    "lat": 47.6807345,
    "long": -122.3911063,
    "zip": "98117",
    "resolvedAddress": "7043 27th Ave NW, Seattle, WA 98117, USA",
    "nhood": "Ballard"
  },
  {
    "lat": 47.6204076,
    "long": -122.3446676,
    "zip": "98109",
    "resolvedAddress": "200 6th Ave N, Seattle, WA 98109, USA",
    "nhood": "Cascade"
  },
  {
    "lat": 47.69874550000001,
    "long": -122.3099986,
    "zip": "98115",
    "resolvedAddress": "1546 NE 96th St, Seattle, WA 98115, USA",
    "nhood": "Northgate"
  },
  {
    "lat": 47.7079336,
    "long": -122.3173992,
    "zip": "98125",
    "resolvedAddress": "10800 Roosevelt Way NE, Seattle, WA 98125, USA",
    "nhood": "Northgate"
  },
  {
    "lat": 47.5474162,
    "long": -122.3217842,
    "zip": "98108",
    "resolvedAddress": "717 S Michigan St, Seattle, WA 98108, USA",
    "nhood": "Georgetown"
  },
  {
    "lat": 47.6024628,
    "long": -122.3292044,
    "zip": "98104",
    "resolvedAddress": "420 4th Ave, Seattle, WA 98104, USA",
    "nhood": "Downtown"
  },
  {
    "lat": 47.6169782,
    "long": -122.3305804,
    "zip": "98101",
    "resolvedAddress": "1808 Minor Ave, Seattle, WA 98101, USA",
    "nhood": "Downtown"
  },
  {
    "lat": 47.5473637,
    "long": -122.2746726,
    "zip": "98118",
    "resolvedAddress": "6119 47th Ave S, Seattle, WA 98118, USA",
    "nhood": "Rainier Valley"
  },
  {
    "lat": 47.626836,
    "long": -122.3573327,
    "zip": "98119",
    "resolvedAddress": "11 W Aloha St, Seattle, WA 98119, USA",
    "nhood": "Queen Anne"
  },
  {
    "lat": 47.7283483,
    "long": -122.366708,
    "zip": "98177",
    "resolvedAddress": "13545 8th Ave NW, Seattle, WA 98177, USA",
    "nhood": "Broadview"
  },
  {
    "lat": 47.6615393,
    "long": -122.3275022,
    "zip": "98105",
    "resolvedAddress": "118 NE 45th St, Seattle, WA 98105, USA",
    "nhood": "Wallingford"
  },
  {
    "lat": 47.7220978,
    "long": -122.3599126,
    "zip": "98177",
    "resolvedAddress": "12719 2nd Ave NW, Seattle, WA 98177, USA",
    "nhood": "Broadview"
  },
  {
    "lat": 47.6219998,
    "long": -122.334313,
    "zip": "98109",
    "resolvedAddress": "Harrison St & Fairview Ave N, Seattle, WA 98109, USA",
    "nhood": "Cascade"
  },
  {
    "lat": 47.6394303,
    "long": -122.3643741,
    "zip": "98119",
    "resolvedAddress": "515 W McGraw St, Seattle, WA 98119, USA",
    "nhood": "Queen Anne"
  },
  {
    "lat": 47.55444139999999,
    "long": -122.2813193,
    "zip": "98118",
    "resolvedAddress": "5270 Rainier Ave S, Seattle, WA 98118, USA",
    "nhood": "Rainier Valley"
  },
  {
    "lat": 47.6192483,
    "long": -122.3340208,
    "zip": "98109",
    "resolvedAddress": "116 Fairview Ave N, Seattle, WA 98109, USA",
    "nhood": "Cascade"
  },
  {
    "lat": 47.5402868,
    "long": -122.2855523,
    "zip": "98118",
    "resolvedAddress": "6900 37th Ave S, Seattle, WA 98118, USA",
    "nhood": "Beacon Hill"
  },
  {
    "lat": 47.6179427,
    "long": -122.3489514,
    "zip": "98121",
    "resolvedAddress": "2721 4th Ave, Seattle, WA 98121, USA",
    "nhood": "Downtown"
  },
  {
    "lat": 47.7023264,
    "long": -122.327269,
    "zip": "98125",
    "resolvedAddress": "10200 1st Ave NE, Seattle, WA 98125, USA",
    "nhood": "Northgate"
  },
  {
    "lat": 47.72981110000001,
    "long": -122.343282,
    "zip": "98133",
    "resolvedAddress": "13732 Midvale Ave N, Seattle, WA 98133, USA",
    "nhood": "Northgate"
  },
  {
    "lat": 47.72981110000001,
    "long": -122.343282,
    "zip": "98133",
    "resolvedAddress": "13732 Midvale Ave N, Seattle, WA 98133, USA",
    "nhood": "Northgate"
  },
  {
    "lat": 47.547505,
    "long": -122.372754,
    "zip": "98126",
    "resolvedAddress": "6032 Lanham Pl SW, Seattle, WA 98126, USA",
    "nhood": "Delridge"
  },
  {
    "lat": 47.5875132,
    "long": -122.3210836,
    "zip": "98134",
    "resolvedAddress": "1700 Airport Way S, Seattle, WA 98134, USA",
    "nhood": "Industrial District"
  },
  {
    "lat": 47.6131877,
    "long": -122.3276207,
    "zip": "98101",
    "resolvedAddress": "1421 Minor Ave, Seattle, WA 98101, USA",
    "nhood": "Downtown"
  },
  {
    "lat": 47.6187504,
    "long": -122.320873,
    "zip": "98102",
    "resolvedAddress": "100 Broadway E, Seattle, WA 98102, USA",
    "nhood": "Capitol Hill"
  },
  {
    "lat": 47.6269973,
    "long": -122.3536417,
    "zip": "98109",
    "resolvedAddress": "155 Aloha St, Seattle, WA 98109, USA",
    "nhood": "Queen Anne"
  },
  {
    "lat": 47.5709905,
    "long": -122.2915097,
    "zip": "98144",
    "resolvedAddress": "3621 33rd Ave S, Seattle, WA 98144, USA",
    "nhood": "Rainier Valley"
  },
  {
    "lat": 47.6364307,
    "long": -122.3467572,
    "zip": "98109",
    "resolvedAddress": "1920 5th Ave N, Seattle, WA 98109, USA",
    "nhood": "Queen Anne"
  },
  {
    "lat": 47.7333361,
    "long": -122.2927583,
    "zip": "98155",
    "resolvedAddress": "3227 NE 145th St, Seattle, WA 98155, USA",
    "nhood": "Lake City"
  },
  {
    "lat": 47.5805353,
    "long": -122.3144414,
    "zip": "98144",
    "resolvedAddress": "2512 14th Ave S, Seattle, WA 98144, USA",
    "nhood": "Beacon Hill"
  },
  {
    "lat": 47.675616,
    "long": -122.301684,
    "zip": "98115",
    "resolvedAddress": "2315 NE 65th St, Seattle, WA 98115, USA",
    "nhood": "Ravenna"
  },
  {
    "lat": 47.6686694,
    "long": -122.3661518,
    "zip": "98107",
    "resolvedAddress": "8th Ave NW & NW Market St, Seattle, WA 98107, USA",
    "nhood": "Ballard"
  },
  {
    "lat": 47.67498320000001,
    "long": -122.3173632,
    "zip": "98115",
    "resolvedAddress": "Roosevelt Way NE & NE 64th St, Seattle, WA 98115, USA",
    "nhood": "Roosevelt"
  },
  {
    "lat": 47.6309197,
    "long": -122.3108149,
    "zip": "98112",
    "resolvedAddress": "1206 16th Ave E, Seattle, WA 98112, USA",
    "nhood": "Capitol Hill"
  },
  {
    "lat": 47.6527931,
    "long": -122.3132149,
    "zip": "98105",
    "resolvedAddress": "3745 15th Ave NE, Seattle, WA 98105, USA",
    "nhood": "University District"
  },
  {
    "lat": 47.6986404,
    "long": -122.3458535,
    "zip": "98103",
    "resolvedAddress": "937 N 96th St, Seattle, WA 98103, USA",
    "nhood": "Greenwood"
  },
  {
    "lat": 47.6242898,
    "long": -122.334347,
    "zip": "98109",
    "resolvedAddress": "Fairview Ave N & Mercer St, Seattle, WA 98109, USA",
    "nhood": "Cascade"
  },
  {
    "lat": 47.6006697,
    "long": -122.3352848,
    "zip": "98104",
    "resolvedAddress": "77 S Washington St, Seattle, WA 98104, USA",
    "nhood": "Downtown"
  },
  {
    "lat": 47.6231422,
    "long": -122.3209413,
    "zip": "98102",
    "resolvedAddress": "E Republican St & Broadway E, Seattle, WA 98102, USA",
    "nhood": "Capitol Hill"
  },
  {
    "lat": 47.6250851,
    "long": -122.3083347,
    "zip": "98112",
    "resolvedAddress": "620 18th Ave E, Seattle, WA 98112, USA",
    "nhood": "Capitol Hill"
  },
  {
    "lat": 47.5260613,
    "long": -122.3641904,
    "zip": "98106",
    "resolvedAddress": "8600 25th Ave SW, Seattle, WA 98106, USA",
    "nhood": "Delridge"
  },
  {
    "lat": 47.5814974,
    "long": -122.399905,
    "zip": "98116",
    "resolvedAddress": "2431 53rd Ave SW, Seattle, WA 98116, USA",
    "nhood": "West Seattle"
  },
  {
    "lat": 47.6497533,
    "long": -122.301931,
    "zip": "98195",
    "resolvedAddress": "3800 Montlake Blvd NE, Seattle, WA 98195, USA",
    "nhood": "University District"
  },
  {
    "lat": 47.611662,
    "long": -122.3364918,
    "zip": "98101",
    "resolvedAddress": "Pine St & 5th Ave, Seattle, WA 98101, USA",
    "nhood": "Downtown"
  },
  {
    "lat": 47.5207708,
    "long": -122.3350746,
    "zip": "98106",
    "resolvedAddress": "9220 2nd Ave SW, Seattle, WA 98106, USA",
    "nhood": "Delridge"
  },
  {
    "lat": 47.6866898,
    "long": -122.3121445,
    "zip": "98115",
    "resolvedAddress": "NE 80th St & 15th Ave NE, Seattle, WA 98115, USA",
    "nhood": "Roosevelt"
  },
  {
    "lat": 47.5269297,
    "long": -122.3917077,
    "zip": "98136",
    "resolvedAddress": "4602 SW Cloverdale St, Seattle, WA 98136, USA",
    "nhood": "West Seattle"
  },
  {
    "lat": 47.6266695,
    "long": -122.3495177,
    "zip": "98109",
    "resolvedAddress": "805 4th Ave N, Seattle, WA 98109, USA",
    "nhood": "Queen Anne"
  },
  {
    "lat": 47.6229613,
    "long": -122.324322,
    "zip": "98102",
    "resolvedAddress": "433 Belmont Ave E, Seattle, WA 98102, USA",
    "nhood": "Capitol Hill"
  },
  {
    "lat": 47.6203619,
    "long": -122.3123262,
    "zip": "98112",
    "resolvedAddress": "1501 E Thomas St, Seattle, WA 98112, USA",
    "nhood": "Capitol Hill"
  },
  {
    "lat": 47.6930336,
    "long": -122.3368498,
    "zip": "98103",
    "resolvedAddress": "8821 Wallingford Ave N, Seattle, WA 98103, USA",
    "nhood": "Northgate"
  },
  {
    "lat": 47.6951385,
    "long": -122.3118018,
    "zip": "98115",
    "resolvedAddress": "9106 15th Ave NE, Seattle, WA 98115, USA",
    "nhood": "Northgate"
  },
  {
    "lat": 47.6198692,
    "long": -122.3319609,
    "zip": "98109",
    "resolvedAddress": "207 Pontius Ave N, Seattle, WA 98109, USA",
    "nhood": "Cascade"
  },
  {
    "lat": 47.7263982,
    "long": -122.3151469,
    "zip": "98125",
    "resolvedAddress": "1203 NE 135th St, Seattle, WA 98125, USA",
    "nhood": "Northgate"
  },
  {
    "lat": 47.6672093,
    "long": -122.3016041,
    "zip": "98105",
    "resolvedAddress": "5300 24th Ave NE, Seattle, WA 98105, USA",
    "nhood": "University District"
  },
  {
    "lat": 47.5402868,
    "long": -122.2855523,
    "zip": "98118",
    "resolvedAddress": "6900 37th Ave S, Seattle, WA 98118, USA",
    "nhood": "Beacon Hill"
  },
  {
    "lat": 47.7073881,
    "long": -122.3134801,
    "zip": "98125",
    "resolvedAddress": "10720 14th Avenue Northeast, Seattle, WA 98125, USA",
    "nhood": "Northgate"
  },
  {
    "lat": 47.6239781,
    "long": -122.3300642,
    "zip": "98109",
    "resolvedAddress": "526 Yale Ave N, Seattle, WA 98109, USA",
    "nhood": "Cascade"
  },
  {
    "lat": 47.7229028,
    "long": -122.2932482,
    "zip": "98125",
    "resolvedAddress": "NE 130th St & Lake City Way NE, Seattle, WA 98125, USA",
    "nhood": "Lake City"
  },
  {
    "lat": 47.6879102,
    "long": -122.3765289,
    "zip": "98117",
    "resolvedAddress": "8030 15th Ave NW, Seattle, WA 98117, USA",
    "nhood": "Ballard"
  },
  {
    "lat": 47.575757,
    "long": -122.2879762,
    "zip": "98144",
    "resolvedAddress": "2957 36th Ave S, Seattle, WA 98144, USA",
    "nhood": "Rainier Valley"
  },
  {
    "lat": 47.5464479,
    "long": -122.2852074,
    "zip": "98118",
    "resolvedAddress": "6056 Martin Luther King Jr Way S, Seattle, WA 98118, USA",
    "nhood": "Rainier Valley"
  },
  {
    "lat": 47.626836,
    "long": -122.3573327,
    "zip": "98119",
    "resolvedAddress": "11 W Aloha St, Seattle, WA 98119, USA",
    "nhood": "Queen Anne"
  },
  {
    "lat": 47.5893519,
    "long": -122.3036503,
    "zip": "98144",
    "resolvedAddress": "1504 22nd Ave S, Seattle, WA 98144, USA",
    "nhood": "Central Area"
  },
  {
    "lat": 47.6295183,
    "long": -122.3095538,
    "zip": "98112",
    "resolvedAddress": "1126 17th Ave E, Seattle, WA 98112, USA",
    "nhood": "Capitol Hill"
  },
  {
    "lat": 47.6176683,
    "long": -122.3275319,
    "zip": "98122",
    "resolvedAddress": "1718 Melrose Ave, Seattle, WA 98122, USA",
    "nhood": "Capitol Hill"
  },
  {
    "lat": 47.5679461,
    "long": -122.2892164,
    "zip": "98118",
    "resolvedAddress": "Rainier Ave S & S Andover St, Seattle, WA 98118, USA",
    "nhood": "Rainier Valley"
  },
  {
    "lat": 47.6706404,
    "long": -122.3880017,
    "zip": "98107",
    "resolvedAddress": "5711 24th Ave NW, Seattle, WA 98107, USA",
    "nhood": "Ballard"
  },
  {
    "lat": 47.6113716,
    "long": -122.3404463,
    "zip": "98101",
    "resolvedAddress": "1902 2nd Ave, Seattle, WA 98101, USA",
    "nhood": "Downtown"
  },
  {
    "lat": 47.6454617,
    "long": -122.3180981,
    "zip": "98102",
    "resolvedAddress": "1103 E Hamlin St, Seattle, WA 98102, USA",
    "nhood": "Capitol Hill"
  },
  {
    "lat": 47.6709041,
    "long": -122.3762273,
    "zip": "98107",
    "resolvedAddress": "NW 58th St & 15th Ave NW, Seattle, WA 98107, USA",
    "nhood": "Ballard"
  },
  {
    "lat": 47.6980696,
    "long": -122.3497233,
    "zip": "98103",
    "resolvedAddress": "9500 Fremont Ave N, Seattle, WA 98103, USA",
    "nhood": "Greenwood"
  },
  {
    "lat": 47.6708195,
    "long": -122.3864756,
    "zip": "98107",
    "resolvedAddress": "2233 NW 58th St, Seattle, WA 98107, USA",
    "nhood": "Ballard"
  },
  {
    "lat": 47.60087830000001,
    "long": -122.3315755,
    "zip": "98104",
    "resolvedAddress": "2nd Ave S & S Washington St, Seattle, WA 98104, USA",
    "nhood": "Downtown"
  },
  {
    "lat": 47.6773161,
    "long": -122.2643661,
    "zip": "98115",
    "resolvedAddress": "5831 NE Park Point Dr, Seattle, WA 98115, USA",
    "nhood": "View Ridge"
  },
  {
    "lat": 47.608863,
    "long": -122.3400709,
    "zip": "98101",
    "resolvedAddress": "Pike St & 1st Ave, Seattle, WA 98101, USA",
    "nhood": "Downtown"
  },
  {
    "lat": 47.616162,
    "long": -122.3151684,
    "zip": "98122",
    "resolvedAddress": "1626 13th Ave, Seattle, WA 98122, USA",
    "nhood": "Capitol Hill"
  },
  {
    "lat": 47.5449482,
    "long": -122.3737114,
    "zip": "98126",
    "resolvedAddress": "3204 SW Morgan St, Seattle, WA 98126, USA",
    "nhood": "Delridge"
  },
  {
    "lat": 47.6094642,
    "long": -122.3243395,
    "zip": "98104",
    "resolvedAddress": "1107 Madison St, Seattle, WA 98104, USA",
    "nhood": "Downtown"
  },
  {
    "lat": 47.60167,
    "long": -122.3023209,
    "zip": "98122",
    "resolvedAddress": "E Yesler Way & 23rd Ave S, Seattle, WA 98122, USA",
    "nhood": "Central Area"
  },
  {
    "lat": 47.60150660000001,
    "long": -122.330588,
    "zip": "98104",
    "resolvedAddress": "223 Yesler Way, Seattle, WA 98104, USA",
    "nhood": "Downtown"
  },
  {
    "lat": 47.6195003,
    "long": -122.3198674,
    "zip": "98102",
    "resolvedAddress": "131 10th Ave E, Seattle, WA 98102, USA",
    "nhood": "Capitol Hill"
  },
  {
    "lat": 47.54512039999999,
    "long": -122.3699488,
    "zip": "98126",
    "resolvedAddress": "6420 30th Ave SW, Seattle, WA 98126, USA",
    "nhood": "Delridge"
  },
  {
    "lat": 47.6783327,
    "long": -122.2615351,
    "zip": "98115",
    "resolvedAddress": "6818 62nd Ave NE, Seattle, WA 98115, USA",
    "nhood": "Sand Point"
  },
  {
    "lat": 47.5525959,
    "long": -122.3626268,
    "zip": "98106",
    "resolvedAddress": "5444 Delridge Way SW, Seattle, WA 98106, USA",
    "nhood": "Delridge"
  },
  {
    "lat": 47.5817026,
    "long": -122.3141551,
    "zip": "98144",
    "resolvedAddress": "2412 Beacon Ave S, Seattle, WA 98144, USA",
    "nhood": "Beacon Hill"
  },
  {
    "lat": 47.60362740000001,
    "long": -122.3280732,
    "zip": "98104",
    "resolvedAddress": "500 5th Ave, Seattle, WA 98104, USA",
    "nhood": "Downtown"
  },
  {
    "lat": 47.5386288,
    "long": -122.2934295,
    "zip": "98108",
    "resolvedAddress": "3001 S Myrtle St, Seattle, WA 98108, USA",
    "nhood": "Beacon Hill"
  },
  {
    "lat": 47.5260613,
    "long": -122.3641904,
    "zip": "98106",
    "resolvedAddress": "8600 25th Ave SW, Seattle, WA 98106, USA",
    "nhood": "Delridge"
  },
  {
    "lat": 47.50052729999999,
    "long": -122.2597856,
    "zip": "98178",
    "resolvedAddress": "11127 59th Ave S, Seattle, WA 98178, USA",
    "nhood": "Rainier Valley"
  },
  {
    "lat": 47.5991984,
    "long": -122.3290272,
    "zip": "98104",
    "resolvedAddress": "S Jackson St & 4th Ave S, Seattle, WA 98104, USA",
    "nhood": "Downtown"
  },
  {
    "lat": 47.618906,
    "long": -122.3306147,
    "zip": "98109",
    "resolvedAddress": "111 Yale Ave N, Seattle, WA 98109, USA",
    "nhood": "Cascade"
  },
  {
    "lat": 47.6521194,
    "long": -122.2783336,
    "zip": "98105",
    "resolvedAddress": "3303 W Laurelhurst Dr NE, Seattle, WA 98105, USA",
    "nhood": "Laurelhurst"
  },
  {
    "lat": 47.59271589999999,
    "long": -122.2959402,
    "zip": "98144",
    "resolvedAddress": "1202 Bradner Pl S, Seattle, WA 98144, USA",
    "nhood": "Central Area"
  },
  {
    "lat": 47.6280001,
    "long": -122.2895123,
    "zip": "98112",
    "resolvedAddress": "33rd Ave E & E Madison St, Seattle, WA 98112, USA",
    "nhood": "Capitol Hill"
  },
  {
    "lat": 47.6032065,
    "long": -122.3360635,
    "zip": "98104",
    "resolvedAddress": "888 Western Ave, Seattle, WA 98104, USA",
    "nhood": "Downtown"
  },
  {
    "lat": 47.6889201,
    "long": -122.3507149,
    "zip": "98103",
    "resolvedAddress": "543 N 83rd St, Seattle, WA 98103, USA",
    "nhood": "Greenwood"
  },
  {
    "lat": 47.5939748,
    "long": -122.3106219,
    "zip": "98144",
    "resolvedAddress": "901 Rainier Ave S, Seattle, WA 98144, USA",
    "nhood": "Beacon Hill"
  },
  {
    "lat": 47.588197,
    "long": -122.3053956,
    "zip": "98144",
    "resolvedAddress": "1706 Rainier Ave S, Seattle, WA 98144, USA",
    "nhood": "Central Area"
  },
  {
    "lat": 47.6194455,
    "long": -122.3481104,
    "zip": "98109",
    "resolvedAddress": "140 4th Ave N, Seattle, WA 98109, USA",
    "nhood": "Cascade"
  },
  {
    "lat": 47.5670242,
    "long": -122.3076553,
    "zip": "98108",
    "resolvedAddress": "4101 Beacon Ave S, Seattle, WA 98108, USA",
    "nhood": "Beacon Hill"
  },
  {
    "lat": 47.6123907,
    "long": -122.340892,
    "zip": "98101",
    "resolvedAddress": "Virginia St & 3rd Ave, Seattle, WA 98101, USA",
    "nhood": "Downtown"
  },
  {
    "lat": 47.6402682,
    "long": -122.3480097,
    "zip": "98109",
    "resolvedAddress": "2406 Bigelow Ave N, Seattle, WA 98109, USA",
    "nhood": "Queen Anne"
  },
  {
    "lat": 47.6311121,
    "long": -122.3095576,
    "zip": "98112",
    "resolvedAddress": "1212 17th Ave E, Seattle, WA 98112, USA",
    "nhood": "Capitol Hill"
  },
  {
    "lat": 47.61905369999999,
    "long": -122.3032973,
    "zip": "98112",
    "resolvedAddress": "2200 E Madison St, Seattle, WA 98112, USA",
    "nhood": "Capitol Hill"
  },
  {
    "lat": 47.6108797,
    "long": -122.3409264,
    "zip": "98101",
    "resolvedAddress": "116 Stewart St, Seattle, WA 98101, USA",
    "nhood": "Downtown"
  },
  {
    "lat": 47.6243475,
    "long": -122.3609513,
    "zip": "98119",
    "resolvedAddress": "533 3rd Ave W, Seattle, WA 98119, USA",
    "nhood": "Queen Anne"
  },
  {
    "lat": 47.65844939999999,
    "long": -122.3134756,
    "zip": "98105",
    "resolvedAddress": "4201 The Ave, Seattle, WA 98105, USA",
    "nhood": "University District"
  },
  {
    "lat": 47.6016601,
    "long": -122.2989156,
    "zip": "98122",
    "resolvedAddress": "E Yesler Way & 26th Ave S, Seattle, WA 98122, USA",
    "nhood": "Central Area"
  },
  {
    "lat": 47.7192729,
    "long": -122.2951529,
    "zip": "98125",
    "resolvedAddress": "NE 125th St & Lake City Way NE, Seattle, WA 98125, USA",
    "nhood": "Lake City"
  },
  {
    "lat": 47.702849,
    "long": -122.358848,
    "zip": "98177",
    "resolvedAddress": "10136 Holman Rd NW, Seattle, WA 98177, USA",
    "nhood": "Greenwood"
  },
  {
    "lat": 47.6523321,
    "long": -122.3128306,
    "zip": "98105",
    "resolvedAddress": "William H. Foege Hall, 3720 15th Ave NE, Seattle, WA 98105, USA",
    "nhood": "University District"
  },
  {
    "lat": 47.5461755,
    "long": -122.296544,
    "zip": "98108",
    "resolvedAddress": "2803 S Graham St, Seattle, WA 98108, USA",
    "nhood": "Beacon Hill"
  },
  {
    "lat": 47.6048717,
    "long": -122.3287217,
    "zip": "98104",
    "resolvedAddress": "Cherry St & 6th Ave, Seattle, WA 98104, USA",
    "nhood": "Downtown"
  },
  {
    "lat": 47.5716979,
    "long": -122.3289579,
    "zip": "98134",
    "resolvedAddress": "4th Ave S & S Spokane St, Seattle, WA 98134, USA",
    "nhood": "Industrial District"
  },
  {
    "lat": 47.5948791,
    "long": -122.3864964,
    "zip": "98116",
    "resolvedAddress": "1140 Alki Ave SW, Seattle, WA 98116, USA",
    "nhood": "West Seattle"
  },
  {
    "lat": 47.5342417,
    "long": -122.3635224,
    "zip": "98106",
    "resolvedAddress": "7541 24th Ave SW, Seattle, WA 98106, USA",
    "nhood": "Delridge"
  },
  {
    "lat": 47.6200003,
    "long": -122.3472151,
    "zip": "98109",
    "resolvedAddress": "206 5th Ave N, Seattle, WA 98109, USA",
    "nhood": "Cascade"
  },
  {
    "lat": 47.597508,
    "long": -122.319646,
    "zip": "98104",
    "resolvedAddress": "10th Ave S & S Weller St, Seattle, WA 98104, USA",
    "nhood": "Downtown"
  },
  {
    "lat": 47.7127888,
    "long": -122.3092744,
    "zip": "98125",
    "resolvedAddress": "11520 17th Ave NE, Seattle, WA 98125, USA",
    "nhood": "Lake City"
  },
  {
    "lat": 47.6849772,
    "long": -122.3452764,
    "zip": "98103",
    "resolvedAddress": "938 N 77th St, Seattle, WA 98103, USA",
    "nhood": "Greenwood"
  },
  {
    "lat": 47.5634381,
    "long": -122.3818753,
    "zip": "98116",
    "resolvedAddress": "4441 39th Ave SW, Seattle, WA 98116, USA",
    "nhood": "West Seattle"
  },
  {
    "lat": 47.6790315,
    "long": -122.2679095,
    "zip": "98115",
    "resolvedAddress": "6918 56th Ave NE, Seattle, WA 98115, USA",
    "nhood": "View Ridge"
  },
  {
    "lat": 47.6986404,
    "long": -122.3458535,
    "zip": "98103",
    "resolvedAddress": "937 N 96th St, Seattle, WA 98103, USA",
    "nhood": "Greenwood"
  },
  {
    "lat": 47.6177801,
    "long": -122.3173307,
    "zip": "98122",
    "resolvedAddress": "1801 12th Ave, Seattle, WA 98122, USA",
    "nhood": "Capitol Hill"
  },
  {
    "lat": 47.519948,
    "long": -122.335432,
    "zip": "98106",
    "resolvedAddress": "9230 2nd Ave SW, Seattle, WA 98106, USA",
    "nhood": "Delridge"
  },
  {
    "lat": 47.5217731,
    "long": -122.2659925,
    "zip": "98118",
    "resolvedAddress": "9061 Seward Park Ave S, Seattle, WA 98118, USA",
    "nhood": "Rainier Valley"
  },
  {
    "lat": 47.5643178,
    "long": -122.3824768,
    "zip": "98116",
    "resolvedAddress": "4414 40th Ave SW, Seattle, WA 98116, USA",
    "nhood": "West Seattle"
  },
  {
    "lat": 47.69180129999999,
    "long": -122.3480077,
    "zip": "98103",
    "resolvedAddress": "743 N 87th St, Seattle, WA 98103, USA",
    "nhood": "Greenwood"
  },
  {
    "lat": 47.6321981,
    "long": -122.360313,
    "zip": "98119",
    "resolvedAddress": "223 W Galer St, Seattle, WA 98119, USA",
    "nhood": "Queen Anne"
  },
  {
    "lat": 47.7088885,
    "long": -122.3328875,
    "zip": "98133",
    "resolvedAddress": "2132 N Northgate Way, Seattle, WA 98133, USA",
    "nhood": "Northgate"
  },
  {
    "lat": 47.5830081,
    "long": -122.3810907,
    "zip": "98116",
    "resolvedAddress": "2300 Fairmount Ave SW, Seattle, WA 98116, USA",
    "nhood": "West Seattle"
  },
  {
    "lat": 47.6139588,
    "long": -122.3376128,
    "zip": "98101",
    "resolvedAddress": "6th Ave & Westlake Ave, Seattle, WA 98101, USA",
    "nhood": "Downtown"
  },
  {
    "lat": 47.6774081,
    "long": -122.2616129,
    "zip": "98115",
    "resolvedAddress": "6622 62nd Ave NE, Seattle, WA 98115, USA",
    "nhood": "Sand Point"
  },
  {
    "lat": 47.5991886,
    "long": -122.3196376,
    "zip": "98104",
    "resolvedAddress": "10th Ave S & S Jackson St, Seattle, WA 98104, USA",
    "nhood": "Downtown"
  },
  {
    "lat": 47.5033871,
    "long": -122.2496008,
    "zip": "98178",
    "resolvedAddress": "10783 68th Ave S, Seattle, WA 98178, USA",
    "nhood": "Rainier Valley"
  },
  {
    "lat": 47.6431211,
    "long": -122.3662123,
    "zip": "98119",
    "resolvedAddress": "7th Ave W & W Raye St, Seattle, WA 98119, USA",
    "nhood": "Queen Anne"
  },
  {
    "lat": 47.5975216,
    "long": -122.3276602,
    "zip": "98104",
    "resolvedAddress": "S Weller St & 5th Ave S, Seattle, WA 98104, USA",
    "nhood": "Downtown"
  },
  {
    "lat": 47.5415741,
    "long": -122.328621,
    "zip": "98108",
    "resolvedAddress": "6795 Fox Ave S, Seattle, WA 98108, USA",
    "nhood": "Georgetown"
  },
  {
    "lat": 47.5746287,
    "long": -122.2946869,
    "zip": "98144",
    "resolvedAddress": "3214 Rainier Ave S, Seattle, WA 98144, USA",
    "nhood": "Rainier Valley"
  },
  {
    "lat": 47.619508,
    "long": -122.2975809,
    "zip": "98112",
    "resolvedAddress": "119 27th Ave E, Seattle, WA 98112, USA",
    "nhood": "Central Area"
  },
  {
    "lat": 47.66717149999999,
    "long": -122.3735161,
    "zip": "98107",
    "resolvedAddress": "14th Ave NW & NW 53rd St, Seattle, WA 98107, USA",
    "nhood": "Ballard"
  },
  {
    "lat": 47.6722594,
    "long": -122.2547515,
    "zip": "98105",
    "resolvedAddress": "6624 NE 60th St, Seattle, WA 98105, USA",
    "nhood": "Windermere"
  },
  {
    "lat": 47.5492263,
    "long": -122.2775154,
    "zip": "98118",
    "resolvedAddress": "5913 Rainier Ave S, Seattle, WA 98118, USA",
    "nhood": "Rainier Valley"
  },
  {
    "lat": 47.5829613,
    "long": -122.287659,
    "zip": "98144",
    "resolvedAddress": "Lake Park Dr S & Lake Washington Blvd S, Seattle, WA 98144, USA",
    "nhood": "Rainier Valley"
  },
  {
    "lat": 47.7088885,
    "long": -122.3328875,
    "zip": "98133",
    "resolvedAddress": "2132 N Northgate Way, Seattle, WA 98133, USA",
    "nhood": "Northgate"
  },
  {
    "lat": 47.57482479999999,
    "long": -122.4031302,
    "zip": "98116",
    "resolvedAddress": "3232 56th Ave SW, Seattle, WA 98116, USA",
    "nhood": "West Seattle"
  },
  {
    "lat": 47.7084091,
    "long": -122.3333163,
    "zip": "98133",
    "resolvedAddress": "2111 N Northgate Way, Seattle, WA 98133, USA",
    "nhood": "Northgate"
  },
  {
    "lat": 47.6593853,
    "long": -122.4012475,
    "zip": "98199",
    "resolvedAddress": "3400 W Government Way, Seattle, WA 98199, USA",
    "nhood": "Magnolia"
  },
  {
    "lat": 47.6066328,
    "long": -122.3264376,
    "zip": "98104",
    "resolvedAddress": "725 9th Ave, Seattle, WA 98104, USA",
    "nhood": "Downtown"
  },
  {
    "lat": 47.5467804,
    "long": -122.30722,
    "zip": "98108",
    "resolvedAddress": "6312 Swift Ave S, Seattle, WA 98108, USA",
    "nhood": "Beacon Hill"
  },
  {
    "lat": 47.5876108,
    "long": -122.3831326,
    "zip": "98116",
    "resolvedAddress": "1705 41st Ave SW, Seattle, WA 98116, USA",
    "nhood": "West Seattle"
  },
  {
    "lat": 47.6342737,
    "long": -122.2764123,
    "zip": "98112",
    "resolvedAddress": "1630 43rd Ave E, Seattle, WA 98112, USA",
    "nhood": "Capitol Hill"
  },
  {
    "lat": 47.6142094,
    "long": -122.3347106,
    "zip": "98101",
    "resolvedAddress": "720 Olive Way, Seattle, WA 98101, USA",
    "nhood": "Downtown"
  },
  {
    "lat": 47.5717251,
    "long": -122.3087322,
    "zip": "98108",
    "resolvedAddress": "3601 Beacon Ave S, Seattle, WA 98108, USA",
    "nhood": "Beacon Hill"
  },
  {
    "lat": 47.6150645,
    "long": -122.3439473,
    "zip": "98121",
    "resolvedAddress": "2225 4th Ave, Seattle, WA 98121, USA",
    "nhood": "Downtown"
  },
  {
    "lat": 47.6342737,
    "long": -122.2764123,
    "zip": "98112",
    "resolvedAddress": "1630 43rd Ave E, Seattle, WA 98112, USA",
    "nhood": "Capitol Hill"
  },
  {
    "lat": 47.6534279,
    "long": -122.4143915,
    "zip": "98199",
    "resolvedAddress": "3616 45th Ave W, Seattle, WA 98199, USA",
    "nhood": "Magnolia"
  },
  {
    "lat": 47.7038411,
    "long": -122.302024,
    "zip": "98125",
    "resolvedAddress": "10315 Lake City Way NE, Seattle, WA 98125, USA",
    "nhood": "Lake City"
  }
]